EUTELSAT QUANTUM        
1 49056U 21069B   25212.48619333  .00000132  00000+0  00000+0 0  9995
2 49056   0.0363 271.6713 0002023 227.5764  32.8070  1.00273048 14713
EUTELSAT KONNECT VHTS   
1 53765U 22110A   25212.33445850  .00000023  00000+0  00000+0 0  9999
2 53765   0.0547  98.0127 0002828  31.9413 302.3918  1.00272989  3605
EUTELSAT HOTBIRD 13F    
1 54048U 22134A   25212.42892124  .00000093  00000+0  00000+0 0  9997
2 54048   0.0640 280.9316 0001930  86.0459 109.7336  1.00272396 10164
EUTELSAT HOTBIRD 13G    
1 54225U 22146A   25212.42892124  .00000093  00000+0  00000+0 0  9997
2 54225   0.0530 245.9410 0002162 292.4138 298.3289  1.00272761  4251
EUTELSAT 10B            
1 54259U 22157A   25212.33593184  .00000074  00000+0  00000+0 0  9999
2 54259   0.0480  94.6593 0001663  43.1987 302.2588  1.00275389  9791
EUTELSAT 36D            
1 59346U 24059A   25212.48385332  .00000162  00000+0  00000+0 0  9992
2 59346   0.0164  86.4047 0000308  50.0429  22.9366  1.00270683  4931
